[{"OBJECT_NAME":"STARLINK-3928","OBJECT_ID":"2022-052J","EPOCH":"2026-03-09T20:25:13.160928","MEAN_MOTION":15.08841716,"ECCENTRICITY":0.00014201,"INCLINATION":53.2167,"RA_OF_ASC_NODE":278.4,"ARG_OF_PERICENTER":91.3146,"MEAN_ANOMALY":268.8009,"EPHEMERIS_TYPE":0,"CLASSIFICATION_TYPE":"U","NORAD_CAT_ID":52606,"ELEMENT_SET_NO":999,"REV_AT_EPOCH":21088,"BSTAR":6.179933e-6,"MEAN_MOTION_DOT":-1.9e-6,"MEAN_MOTION_DDOT":0},{"OBJECT_NAME":"ELECTRON KICK STAGE R\/B","OBJECT_ID":"2023-196B","EPOCH":"2026-03-09T10:54:03.246336","MEAN_MOTION":15.12760744,"ECCENTRICITY":0.00189263,"INCLINATION":42.0179,"RA_OF_ASC_NODE":242.1679,"ARG_OF_PERICENTER":295.0915,"MEAN_ANOMALY":64.7951,"EPHEMERIS_TYPE":0,"CLASSIFICATION_TYPE":"U","NORAD_CAT_ID":58579,"ELEMENT_SET_NO":999,"REV_AT_EPOCH":12282,"BSTAR":0.00048326039,"MEAN_MOTION_DOT":8.466e-5,"MEAN_MOTION_DDOT":0}]
